KUIPER-00089            
1 64834U 25151U   25277.50003471 -.00731274  00000+0 -34145-1 0  9995
2 64834  51.8866 261.3939 0006074  80.8219 276.1111 15.21740851  3353
KUIPER-00090            
1 64835U 25151V   25277.43198830  .00050616  00000+0  13879-2 0  9996
2 64835  51.8773 260.9164 0008852  88.0198 272.1802 15.36751412 12318
KUIPER-00091            
1 64836U 25151W   25277.50003471  .00030725  00000+0  11978-2 0  9998
2 64836  51.8798 260.8249 0009451  77.0193 154.5333 15.25654505  5876
KUIPER-00092            
1 64837U 25151X   25277.50003471 -.01603995  00000+0 -11168+0 0  9995
2 64837  51.8856 263.2730 0009236  66.3846  94.9688 15.08599357  5336
KUIPER-00093            
1 64838U 25151Y   25277.50003471 -.00634824  00000+0 -54645-1 0  9999
2 64838  51.9145 264.8710 0014509  87.3382 259.5031 14.99310597  5855
KUIPER-00094            
1 64839U 25151Z   25277.50003471  .00026624  00000+0  12384-2 0  9996
2 64839  51.8838 261.4660 0008733  87.9144 174.6620 15.19739850  4798
KUIPER-00081            
1 65132U 25171A   25275.95229294  .00044349  00000+0  11991-2 0  9992
2 65132  51.8741 151.5981 0004259 307.8594  52.2007 15.37272996  9311
KUIPER-00088            
1 65133U 25171B   25277.50003471 -.00304295  00000+0 -10805-1 0  9996
2 65133  51.8782 144.3074 0007074 305.8244 255.0712 15.29775686  4774
